{"type": "FeatureCollection", "features": [{"type": "Feature", "properties": {"name": "Lago de Amatitl\u00e1n, Villa Canales, Departamento de Guatemala, Guatemala", "fuente": "OpenStreetMap (ODbL)"}, "geometry": {"type": "Polygon", "coordinates": [[[-90.6114044, 14.4874774], [-90.6113787, 14.4869455], [-90.6110611, 14.4865633], [-90.610735, 14.4861311], [-90.6105461, 14.485591], [-90.6103745, 14.4846519], [-90.6100912, 14.4842364], [-90.6094904, 14.4837045], [-90.6092587, 14.4834718], [-90.608778, 14.4832225], [-90.6084004, 14.483181], [-90.6081429, 14.483181], [-90.6078167, 14.4830563], [-90.6073017, 14.4826574], [-90.607173, 14.4823499], [-90.6070013, 14.4819594], [-90.606658, 14.4817267], [-90.6065464, 14.4812696], [-90.6064434, 14.480397], [-90.6062288, 14.4798568], [-90.6062288, 14.4791089], [-90.6065292, 14.4785853], [-90.6067438, 14.4781366], [-90.6069155, 14.4775548], [-90.6068897, 14.47689], [-90.6069584, 14.4762002], [-90.6066151, 14.4757016], [-90.6061859, 14.4751614], [-90.6058855, 14.4746628], [-90.6058855, 14.4739979], [-90.6057568, 14.4734162], [-90.6054821, 14.4730671], [-90.6049843, 14.4726516], [-90.6044006, 14.4725186], [-90.6039972, 14.4724023], [-90.603714, 14.4725685], [-90.6032505, 14.4727929], [-90.6029072, 14.4730671], [-90.6025381, 14.473333], [-90.6022549, 14.4737901], [-90.6019631, 14.4741807], [-90.6019631, 14.4747292], [-90.6018086, 14.475286], [-90.6011906, 14.4760756], [-90.600564, 14.4768401], [-90.5998345, 14.4776961], [-90.5992165, 14.4780036], [-90.5982208, 14.4784191], [-90.5972595, 14.4786518], [-90.5969162, 14.4785853], [-90.5962725, 14.478336], [-90.5958691, 14.4781116], [-90.5953541, 14.4779454], [-90.5946846, 14.4779454], [-90.5941696, 14.477505], [-90.5939808, 14.4768235], [-90.5939121, 14.4763083], [-90.5936117, 14.4755104], [-90.5932824, 14.4751182], [-90.5917835, 14.4737652], [-90.5908651, 14.472984], [-90.5900068, 14.4724189], [-90.5891743, 14.4718537], [-90.5884619, 14.4715462], [-90.587904, 14.4709645], [-90.5875178, 14.4704658], [-90.5874577, 14.4699921], [-90.5876894, 14.469427], [-90.5879469, 14.4690281], [-90.5880928, 14.468679], [-90.5880327, 14.4682635], [-90.5884361, 14.4678313], [-90.5885735, 14.4672662], [-90.5885477, 14.4666429], [-90.588419, 14.466086], [-90.5884361, 14.4656455], [-90.5882473, 14.4653547], [-90.5876465, 14.4645069], [-90.5871315, 14.4639584], [-90.5865736, 14.4636509], [-90.5861702, 14.4632104], [-90.5859299, 14.4626536], [-90.5858011, 14.4621549], [-90.5854149, 14.4618806], [-90.5849171, 14.4617975], [-90.5845394, 14.4618806], [-90.5842304, 14.462263], [-90.5839729, 14.4623461], [-90.5831661, 14.4626785], [-90.582737, 14.4628613], [-90.5821962, 14.4630691], [-90.5818272, 14.4633185], [-90.5815354, 14.4635927], [-90.5811234, 14.4640249], [-90.5806084, 14.4643573], [-90.5802651, 14.4646067], [-90.5800505, 14.4648976], [-90.579793, 14.4653547], [-90.5795956, 14.4657536], [-90.579278, 14.4659364], [-90.578763, 14.4659364], [-90.5780506, 14.4658699], [-90.5774326, 14.4656871], [-90.576746, 14.4655043], [-90.5763598, 14.4652051], [-90.5759907, 14.4647729], [-90.5758019, 14.4642742], [-90.5757332, 14.4637922], [-90.5755015, 14.4634431], [-90.575304, 14.4631107], [-90.5751152, 14.4625705], [-90.5756302, 14.4613487], [-90.5758019, 14.4605509], [-90.575613, 14.4600522], [-90.5749865, 14.4595785], [-90.5745316, 14.4592876], [-90.5741282, 14.4587058], [-90.5741539, 14.4579993], [-90.5738278, 14.457002], [-90.5735703, 14.4567111], [-90.573184, 14.4562955], [-90.5725403, 14.4561127], [-90.5719223, 14.4555059], [-90.5717249, 14.4551735], [-90.5713116, 14.4550318], [-90.5708408, 14.4549823], [-90.5701929, 14.4549713], [-90.5693263, 14.4544983], [-90.5692358, 14.4541761], [-90.5689526, 14.4539018], [-90.5683817, 14.4533699], [-90.5675845, 14.4528754], [-90.5675284, 14.4528225], [-90.5674322, 14.4528109], [-90.5663012, 14.4531047], [-90.5657934, 14.4531944], [-90.5657705, 14.4531477], [-90.5657565, 14.453119], [-90.565795, 14.4530706], [-90.5661596, 14.4529742], [-90.5672984, 14.4526466], [-90.5673694, 14.4525739], [-90.5673729, 14.4525333], [-90.5669129, 14.4520318], [-90.5667971, 14.45149], [-90.5666394, 14.4511337], [-90.5664918, 14.4508002], [-90.5662959, 14.4504966], [-90.566073, 14.4501513], [-90.565802, 14.4497314], [-90.565737, 14.4493222], [-90.5654559, 14.4489285], [-90.5650107, 14.4484474], [-90.5647253, 14.4481388], [-90.5643648, 14.447929], [-90.5639747, 14.4475718], [-90.5635846, 14.4470859], [-90.5632302, 14.4466444], [-90.5632302, 14.4461276], [-90.5632302, 14.445647], [-90.5627802, 14.4451859], [-90.5623857, 14.4447816], [-90.5619906, 14.4443767], [-90.5614924, 14.4438662], [-90.5609739, 14.443335], [-90.5604775, 14.4428262], [-90.5600737, 14.4424124], [-90.5596868, 14.442016], [-90.5593747, 14.4415588], [-90.5590234, 14.441044], [-90.5586911, 14.4405572], [-90.5583239, 14.4400193], [-90.5580804, 14.4396625], [-90.5579511, 14.4392244], [-90.5577762, 14.4386314], [-90.5576399, 14.4381694], [-90.5575201, 14.4377634], [-90.5573938, 14.4373351], [-90.5573938, 14.4369669], [-90.5573938, 14.4365827], [-90.5573938, 14.4361378], [-90.5573938, 14.4356929], [-90.5573938, 14.4353403], [-90.557784, 14.4351682], [-90.5577733, 14.4348682], [-90.5578041, 14.4347695], [-90.5577465, 14.4344409], [-90.5576673, 14.434324], [-90.5575346, 14.4342357], [-90.5573334, 14.4341214], [-90.5571522, 14.4339456], [-90.5570504, 14.4336778], [-90.556832, 14.4334927], [-90.5565884, 14.4333951], [-90.5563511, 14.4334399], [-90.5561509, 14.433416], [-90.5560322, 14.4333817], [-90.5560276, 14.433316], [-90.5560646, 14.4332459], [-90.5561046, 14.4331967], [-90.5561878, 14.4331683], [-90.5565498, 14.4331191], [-90.5566361, 14.4330833], [-90.5566716, 14.4329953], [-90.5567116, 14.4329177], [-90.5566751, 14.4327899], [-90.5566623, 14.4327327], [-90.556576, 14.4326029], [-90.5564251, 14.4324284], [-90.5562618, 14.432212], [-90.5561324, 14.4319942], [-90.5560677, 14.4317466], [-90.5560214, 14.431202], [-90.5559691, 14.431114], [-90.5558597, 14.4309887], [-90.5557406, 14.4309202], [-90.5555401, 14.4308124], [-90.5554516, 14.4308605], [-90.5548702, 14.4304721], [-90.5539694, 14.4300197], [-90.5538979, 14.4299838], [-90.5537832, 14.4298104], [-90.5535231, 14.4295539], [-90.5533232, 14.4292915], [-90.5531415, 14.4291084], [-90.5530604, 14.4289259], [-90.5530604, 14.428859], [-90.5530597, 14.4287967], [-90.5527365, 14.4285467], [-90.5523945, 14.4284752], [-90.5521987, 14.4284609], [-90.5518731, 14.4284559], [-90.5516274, 14.4283889], [-90.5513733, 14.4282557], [-90.5512091, 14.4281051], [-90.5510254, 14.42798], [-90.550937, 14.4279762], [-90.5508291, 14.4279762], [-90.5507388, 14.428011], [-90.5506494, 14.4280506], [-90.5505746, 14.4280289], [-90.5505289, 14.4279536], [-90.5505273, 14.4275267], [-90.5505211, 14.4274219], [-90.5505493, 14.4273354], [-90.5505231, 14.4272789], [-90.5506047, 14.427149], [-90.550721, 14.4271139], [-90.5508712, 14.4271009], [-90.5509544, 14.4270853], [-90.5511381, 14.426984], [-90.5512347, 14.4269269], [-90.5512937, 14.426845], [-90.5514171, 14.4267931], [-90.5515632, 14.426584], [-90.551574, 14.4264242], [-90.5515498, 14.4261372], [-90.5513902, 14.4254514], [-90.5511542, 14.4250553], [-90.5509101, 14.4248851], [-90.5505775, 14.4247474], [-90.5503211, 14.424712], [-90.5501068, 14.4246825], [-90.5496884, 14.4247319], [-90.5490272, 14.4248812], [-90.5487965, 14.4249319], [-90.548582, 14.4250007], [-90.5482132, 14.4248332], [-90.5478604, 14.4246228], [-90.5476888, 14.424198], [-90.5475857, 14.4241013], [-90.5475198, 14.4240305], [-90.5474179, 14.4237512], [-90.5473347, 14.4235811], [-90.5470182, 14.4233057], [-90.5469887, 14.4232135], [-90.5469847, 14.4231551], [-90.5465985, 14.4230304], [-90.5463624, 14.4229096], [-90.5461908, 14.4230577], [-90.5459641, 14.4228654], [-90.545369, 14.4226183], [-90.5445855, 14.4224303], [-90.5444742, 14.4225927], [-90.5441027, 14.4224862], [-90.5438184, 14.4225394], [-90.5430512, 14.4225901], [-90.5427079, 14.4227148], [-90.5422359, 14.4227096], [-90.5419623, 14.4225797], [-90.5415599, 14.4221952], [-90.5414996, 14.4219887], [-90.5415385, 14.4218004], [-90.5417799, 14.4213354], [-90.5418483, 14.4211497], [-90.5418282, 14.4208808], [-90.5417329, 14.4206743], [-90.5415452, 14.4204782], [-90.5413252, 14.4204366], [-90.5409229, 14.4206223], [-90.5404695, 14.4204186], [-90.5404173, 14.4204028], [-90.5396167, 14.4204119], [-90.53939, 14.420321], [-90.5388817, 14.420508], [-90.538752, 14.4205622], [-90.5383681, 14.4208136], [-90.5379779, 14.4210691], [-90.5375794, 14.4214497], [-90.537201, 14.421811], [-90.5367699, 14.4222227], [-90.5363175, 14.4226546], [-90.5359182, 14.423036], [-90.5354975, 14.4234378], [-90.5352638, 14.4236609], [-90.5350181, 14.4243505], [-90.5349956, 14.4249558], [-90.5349701, 14.4256411], [-90.5349475, 14.426247], [-90.5349235, 14.4268918], [-90.5349061, 14.4273605], [-90.5350805, 14.4280182], [-90.5352356, 14.428603], [-90.5351169, 14.4293598], [-90.5353539, 14.4297082], [-90.535694, 14.4303321], [-90.5358225, 14.4308166], [-90.5359269, 14.4312104], [-90.5360986, 14.431574], [-90.5361244, 14.4322515], [-90.5358247, 14.4327492], [-90.5359315, 14.4332661], [-90.5359327, 14.4337918], [-90.5359339, 14.434338], [-90.5359351, 14.4349044], [-90.5356353, 14.4352852], [-90.535629, 14.435629], [-90.5354112, 14.4361027], [-90.5354201, 14.4363298], [-90.5354831, 14.4369035], [-90.5358952, 14.4373697], [-90.5361332, 14.43782], [-90.5362613, 14.4381577], [-90.5362593, 14.4384166], [-90.5362794, 14.4388313], [-90.5360618, 14.4394406], [-90.535846, 14.440045], [-90.5356059, 14.4404355], [-90.5352313, 14.4405566], [-90.5349721, 14.4405456], [-90.5347124, 14.440737], [-90.5346966, 14.4409126], [-90.5342827, 14.4410973], [-90.5341044, 14.4416478], [-90.5339142, 14.4418566], [-90.533919, 14.4421441], [-90.5336849, 14.4424358], [-90.5337421, 14.4427375], [-90.5336557, 14.4430337], [-90.5337006, 14.4431996], [-90.5336317, 14.4433497], [-90.5334614, 14.443398], [-90.5332997, 14.4434002], [-90.5330443, 14.4432896], [-90.5326589, 14.4432578], [-90.5322946, 14.4433122], [-90.5322652, 14.4434211], [-90.5322076, 14.4434265], [-90.5317589, 14.4433124], [-90.5313294, 14.4433758], [-90.5309159, 14.4433949], [-90.5306841, 14.4434749], [-90.5302926, 14.4437433], [-90.5298899, 14.444131], [-90.529576, 14.4444309], [-90.5295547, 14.4444917], [-90.5295836, 14.4445527], [-90.5296472, 14.444584], [-90.5298078, 14.4446505], [-90.5298445, 14.4447285], [-90.5298081, 14.4448371], [-90.5298573, 14.4448812], [-90.5299232, 14.4449299], [-90.529933, 14.4450668], [-90.5298956, 14.4451515], [-90.5298046, 14.4451635], [-90.5297446, 14.4451009], [-90.5296816, 14.4450151], [-90.5294904, 14.4450796], [-90.5292766, 14.4452926], [-90.529149, 14.4455486], [-90.5289431, 14.445856], [-90.5288453, 14.4460663], [-90.528898, 14.446312], [-90.5288665, 14.4464433], [-90.5289459, 14.4465506], [-90.5292772, 14.4467893], [-90.5296119, 14.4469012], [-90.5297994, 14.4471738], [-90.5299251, 14.4473211], [-90.5300658, 14.4472934], [-90.5301377, 14.4474051], [-90.5303158, 14.4475137], [-90.5307546, 14.4476248], [-90.5309632, 14.4476674], [-90.5311102, 14.4476026], [-90.5317249, 14.4472639], [-90.5321181, 14.4469786], [-90.5325036, 14.4468563], [-90.532725, 14.4467878], [-90.5329827, 14.4468788], [-90.5331847, 14.4469547], [-90.5337345, 14.4471103], [-90.5340219, 14.4472373], [-90.5344034, 14.4473848], [-90.5346685, 14.447415], [-90.5349059, 14.4472283], [-90.5349646, 14.4470576], [-90.5350792, 14.4468454], [-90.5353002, 14.4468373], [-90.5355067, 14.4467567], [-90.5356579, 14.4466548], [-90.5358794, 14.4469043], [-90.5365684, 14.4471607], [-90.5366627, 14.447233], [-90.5366507, 14.4474017], [-90.5366669, 14.4475881], [-90.5367944, 14.447808], [-90.5369103, 14.4480878], [-90.5370265, 14.4482681], [-90.5372395, 14.4484534], [-90.5375242, 14.4485321], [-90.5383021, 14.4484016], [-90.5389863, 14.4484211], [-90.5394827, 14.4483626], [-90.5396651, 14.4482652], [-90.540046, 14.448047], [-90.5402136, 14.4478782], [-90.5405288, 14.4476262], [-90.5408533, 14.4473639], [-90.5411081, 14.4472756], [-90.541257, 14.4472808], [-90.54144, 14.4473058], [-90.5415936, 14.4473639], [-90.5417465, 14.4473522], [-90.5418752, 14.4473042], [-90.5420362, 14.4472912], [-90.5422293, 14.4474327], [-90.5424036, 14.4475236], [-90.5425659, 14.4475756], [-90.5429414, 14.4475223], [-90.5431171, 14.4474652], [-90.5432512, 14.4473327], [-90.543392, 14.4470042], [-90.5435523, 14.4469087], [-90.5435892, 14.4468669], [-90.5435846, 14.4467804], [-90.5435538, 14.4467163], [-90.5436884, 14.4466496], [-90.543907, 14.4464769], [-90.5439459, 14.4463626], [-90.5439235, 14.4462941], [-90.5441515, 14.4461345], [-90.544341, 14.4460837], [-90.5446984, 14.4461449], [-90.5448571, 14.4462434], [-90.5453162, 14.4462923], [-90.5455979, 14.4462676], [-90.5459626, 14.4464598], [-90.5460887, 14.4464429], [-90.5462751, 14.4464235], [-90.546593, 14.4463559], [-90.5468987, 14.4462832], [-90.547053, 14.4462313], [-90.5471522, 14.4461741], [-90.5472783, 14.4460559], [-90.5474513, 14.4458975], [-90.5475653, 14.4457858], [-90.5476484, 14.4456741], [-90.5477356, 14.4455144], [-90.5478804, 14.4454274], [-90.5479676, 14.4453793], [-90.5482707, 14.445365], [-90.5485456, 14.4453598], [-90.5486153, 14.4453975], [-90.5486891, 14.4454494], [-90.5487642, 14.4455416], [-90.5488567, 14.4456442], [-90.548952, 14.4458274], [-90.5490096, 14.4460546], [-90.5490753, 14.4464468], [-90.5491183, 14.4465897], [-90.549365, 14.4468157], [-90.5494415, 14.446852], [-90.5496145, 14.4468507], [-90.5499551, 14.4468183], [-90.5502633, 14.4468375], [-90.5503923, 14.4468455], [-90.5505237, 14.4468845], [-90.5505868, 14.4469222], [-90.5506471, 14.4469494], [-90.5507423, 14.4469533], [-90.5507946, 14.4469416], [-90.5508322, 14.4469988], [-90.5510414, 14.4471936], [-90.5512748, 14.4473157], [-90.551429, 14.4473676], [-90.551484, 14.447452], [-90.5514893, 14.4475455], [-90.551492, 14.4476014], [-90.5514813, 14.4476884], [-90.5514706, 14.4477897], [-90.551484, 14.4478806], [-90.5515189, 14.4479362], [-90.5515975, 14.4479877], [-90.5515536, 14.4480392], [-90.5519541, 14.4484442], [-90.5521421, 14.4486441], [-90.5522769, 14.4487828], [-90.5524695, 14.4489238], [-90.5526251, 14.4490225], [-90.5527639, 14.4491089], [-90.5530026, 14.449192], [-90.5531662, 14.4493504], [-90.5533607, 14.4494764], [-90.5535699, 14.4495563], [-90.5536544, 14.4495784], [-90.553637, 14.4497258], [-90.5537496, 14.4497985], [-90.553926, 14.4498303], [-90.5540152, 14.4498141], [-90.55405, 14.4498141], [-90.5543031, 14.4497252], [-90.5543531, 14.4497076], [-90.5546306, 14.4495863], [-90.554883, 14.4495714], [-90.5549209, 14.4495954], [-90.5549729, 14.4495811], [-90.5550191, 14.4495571], [-90.5550855, 14.4495493], [-90.5551137, 14.4495909], [-90.5551378, 14.4496116], [-90.5552102, 14.4496253], [-90.5552802, 14.4496683], [-90.5554955, 14.4497579], [-90.5555397, 14.4497936], [-90.5556537, 14.4498293], [-90.5557355, 14.449817], [-90.5557851, 14.4498059], [-90.5562257, 14.449902], [-90.5566025, 14.4500968], [-90.5567675, 14.4502702], [-90.5568594, 14.4503728], [-90.5569526, 14.4505066], [-90.5569753, 14.4505578], [-90.5569753, 14.4506026], [-90.5569707, 14.4506466], [-90.5569738, 14.450751], [-90.5569799, 14.4508509], [-90.5569915, 14.45093], [-90.5570277, 14.4510135], [-90.5570654, 14.4510926], [-90.5571139, 14.4511761], [-90.5571347, 14.4512873], [-90.5571525, 14.4513999], [-90.5571293, 14.4514935], [-90.557063, 14.4516584], [-90.5570214, 14.451712], [-90.5569711, 14.4518318], [-90.5568122, 14.4521863], [-90.5567599, 14.452187], [-90.5567163, 14.4523091], [-90.5567109, 14.4523766], [-90.556721, 14.4524454], [-90.5567619, 14.452522], [-90.5568316, 14.4526285], [-90.5569215, 14.4527318], [-90.5570341, 14.4527844], [-90.5570569, 14.4527474], [-90.5571508, 14.4528006], [-90.5571173, 14.4528603], [-90.5572762, 14.4529454], [-90.5575505, 14.4530551], [-90.557812, 14.4530162], [-90.5579032, 14.4529655], [-90.5580373, 14.4528246], [-90.5581459, 14.4526746], [-90.55817, 14.4526272], [-90.5584041, 14.4524649], [-90.55862, 14.4522876], [-90.5588466, 14.4521331], [-90.5590719, 14.452137], [-90.5591967, 14.4521915], [-90.5591859, 14.4522383], [-90.5592476, 14.4522513], [-90.5592879, 14.4523006], [-90.5592597, 14.4523253], [-90.5592879, 14.4524954], [-90.5593308, 14.4524915], [-90.5593281, 14.4526785], [-90.5593522, 14.4528928], [-90.5593723, 14.4529941], [-90.559426, 14.4531357], [-90.5595105, 14.453337], [-90.5594783, 14.4533875], [-90.5595212, 14.4534993], [-90.559658, 14.4535824], [-90.5597385, 14.4536123], [-90.560004, 14.4536811], [-90.5601649, 14.4537006], [-90.5602722, 14.453659], [-90.5603522, 14.4536037], [-90.5610166, 14.4534425], [-90.5611467, 14.4533727], [-90.5612556, 14.4532919], [-90.5613727, 14.4531867], [-90.5614435, 14.4530457], [-90.5614997, 14.4529309], [-90.5615136, 14.4528473], [-90.5615059, 14.4527063], [-90.5614127, 14.4524841], [-90.5611075, 14.4519971], [-90.5610614, 14.4518105], [-90.5606636, 14.4511427], [-90.5605812, 14.4511316], [-90.560535, 14.4510726], [-90.5605227, 14.4509861], [-90.5605563, 14.4507799], [-90.5605481, 14.4507042], [-90.5604841, 14.4506341], [-90.5605558, 14.4503954], [-90.5607584, 14.4501015], [-90.5609725, 14.4497994], [-90.5611042, 14.4496487], [-90.561174, 14.4496327], [-90.5615066, 14.4496538], [-90.5617031, 14.4497649], [-90.5618184, 14.4499028], [-90.5617934, 14.4501399], [-90.5617105, 14.4503405], [-90.5616984, 14.4504493], [-90.561704, 14.450579], [-90.5617233, 14.4506862], [-90.5619064, 14.4509908], [-90.5620092, 14.4511209], [-90.5620321, 14.4511224], [-90.5620611, 14.4511406], [-90.5620743, 14.4511549], [-90.5620804, 14.451178], [-90.5620849, 14.4512001], [-90.5622237, 14.4512809], [-90.5623068, 14.451337], [-90.5623645, 14.4514315], [-90.5623494, 14.4515175], [-90.5623058, 14.4515565], [-90.5623169, 14.4516481], [-90.5623484, 14.4517351], [-90.5623598, 14.4517565], [-90.5623699, 14.451837], [-90.5623866, 14.4518864], [-90.5624165, 14.4519302], [-90.5624554, 14.4519708], [-90.5625043, 14.4519902], [-90.5625147, 14.4520299], [-90.5627816, 14.4521208], [-90.562962, 14.4521058], [-90.5630431, 14.4520805], [-90.5631747, 14.4520384], [-90.5634253, 14.4519883], [-90.5636144, 14.4519831], [-90.5638585, 14.452013], [-90.5640597, 14.4520753], [-90.5643037, 14.4521779], [-90.5646739, 14.4523805], [-90.5647517, 14.4524649], [-90.564808, 14.452548], [-90.5649823, 14.4526324], [-90.565103, 14.4526974], [-90.5651741, 14.4527259], [-90.5652712, 14.452776], [-90.5653833, 14.452861], [-90.5654195, 14.4529337], [-90.5654262, 14.453], [-90.5655402, 14.45312], [-90.56556, 14.453094], [-90.5656367, 14.4531102], [-90.5656615, 14.4531459], [-90.5656683, 14.4531729], [-90.5656845, 14.4532374], [-90.5655467, 14.4532761], [-90.5656701, 14.453328], [-90.5658924, 14.4536104], [-90.5659712, 14.4538752], [-90.5659037, 14.4539876], [-90.5657977, 14.4540989], [-90.5656524, 14.454221], [-90.5653466, 14.4542464], [-90.5651143, 14.4541793], [-90.5647125, 14.4538852], [-90.5643177, 14.4538437], [-90.5639744, 14.4540681], [-90.5638886, 14.4543174], [-90.563571, 14.4546166], [-90.5632019, 14.4548826], [-90.5631418, 14.4554478], [-90.5631676, 14.4558384], [-90.5635452, 14.4561459], [-90.5638542, 14.4563952], [-90.5639065, 14.4569089], [-90.5638529, 14.457218], [-90.5638676, 14.4573608], [-90.5638891, 14.457466], [-90.5639588, 14.4575764], [-90.5641747, 14.4576219], [-90.5642498, 14.4576284], [-90.5646262, 14.4575677], [-90.5646911, 14.4574659], [-90.5649339, 14.4573287], [-90.5650233, 14.4573099], [-90.5651049, 14.4573381], [-90.5651911, 14.457432], [-90.5652543, 14.4575436], [-90.5652598, 14.4577034], [-90.5652571, 14.4578522], [-90.5652553, 14.4580001], [-90.5652243, 14.4581158], [-90.5651975, 14.4581908], [-90.5651163, 14.4582198], [-90.5650998, 14.4582896], [-90.5651876, 14.4585708], [-90.5653509, 14.4587986], [-90.5654038, 14.4588293], [-90.5655078, 14.458845], [-90.5656375, 14.4588217], [-90.5656788, 14.4587558], [-90.5658546, 14.4586035], [-90.5661815, 14.4583058], [-90.5662182, 14.4581521], [-90.5662823, 14.4579896], [-90.5663301, 14.4579502], [-90.566385, 14.4578692], [-90.5664181, 14.4577793], [-90.5664128, 14.4576837], [-90.5663975, 14.457535], [-90.5664878, 14.4573637], [-90.566594, 14.457262], [-90.566821, 14.4572608], [-90.5670792, 14.4573863], [-90.5672086, 14.4574144], [-90.567311, 14.4574016], [-90.5674314, 14.4573374], [-90.5674978, 14.4572902], [-90.5675598, 14.4573165], [-90.5675799, 14.4573474], [-90.567623, 14.4573408], [-90.5677158, 14.4573383], [-90.5678997, 14.457523], [-90.5682654, 14.4578606], [-90.5682576, 14.4581872], [-90.5681295, 14.4582654], [-90.568041, 14.4584599], [-90.5678507, 14.4585382], [-90.5676699, 14.4584806], [-90.567361, 14.4585579], [-90.5672188, 14.4586642], [-90.5668755, 14.4590382], [-90.5667038, 14.4596616], [-90.5665751, 14.4602018], [-90.5669184, 14.4610495], [-90.5670643, 14.4614485], [-90.567236, 14.4617643], [-90.5677509, 14.4618806], [-90.5681801, 14.4619305], [-90.5684033, 14.4621965], [-90.5680771, 14.462612], [-90.5673646, 14.462999], [-90.567327, 14.4631029], [-90.5672036, 14.463547], [-90.5672251, 14.4637652], [-90.5669184, 14.4645402], [-90.5670471, 14.4649391], [-90.5670471, 14.4653962], [-90.5666269, 14.4660127], [-90.5666135, 14.4661075], [-90.566618, 14.4662855], [-90.5666202, 14.4663932], [-90.5667047, 14.466401], [-90.5673433, 14.4673395], [-90.5672897, 14.4678434], [-90.5672617, 14.4682219], [-90.567133, 14.4688037], [-90.5673905, 14.4692192], [-90.5675793, 14.4695267], [-90.5678625, 14.4694104], [-90.5680192, 14.4695159], [-90.5684033, 14.4703246], [-90.5687702, 14.470934], [-90.5689365, 14.4711729], [-90.5690599, 14.4713391], [-90.5691565, 14.4714482], [-90.569296, 14.4715313], [-90.5694676, 14.4715573], [-90.5696232, 14.4715313], [-90.5697508, 14.4714216], [-90.5705834, 14.4711723], [-90.5712357, 14.4709229], [-90.5716648, 14.4705074], [-90.5722399, 14.4703578], [-90.5725403, 14.4704409], [-90.5730886, 14.4703158], [-90.5731959, 14.4703522], [-90.5733246, 14.4704301], [-90.573448, 14.4704976], [-90.5735821, 14.4704925], [-90.5736626, 14.4704613], [-90.5737323, 14.4703886], [-90.5737752, 14.4702847], [-90.5739576, 14.47016], [-90.5742044, 14.4702327], [-90.5743331, 14.4702951], [-90.5745853, 14.4705184], [-90.574773, 14.4706794], [-90.5749822, 14.4707626], [-90.5751378, 14.4708249], [-90.5753202, 14.4709184], [-90.5754543, 14.4711106], [-90.5758674, 14.4723208], [-90.5758459, 14.4725026], [-90.5756989, 14.4726516], [-90.575244, 14.472984], [-90.5747891, 14.4731835], [-90.5737913, 14.4739881], [-90.5733128, 14.4741807], [-90.5730124, 14.474563], [-90.5726261, 14.4748705], [-90.5720253, 14.4751448], [-90.5718107, 14.4755104], [-90.5719824, 14.4761171], [-90.5719752, 14.4766258], [-90.5719566, 14.4770313], [-90.5715935, 14.4772255], [-90.5711137, 14.4775837], [-90.5708923, 14.4779205], [-90.5706692, 14.4783028], [-90.5706949, 14.4786518], [-90.5708995, 14.4789601], [-90.5710802, 14.4791041], [-90.5712668, 14.4792527], [-90.5715366, 14.4791351], [-90.5717858, 14.4789192], [-90.5721519, 14.4787927], [-90.5724081, 14.4788791], [-90.5725505, 14.478808], [-90.5725833, 14.4786967], [-90.572584, 14.4785057], [-90.572887, 14.4784024], [-90.5730117, 14.4784569], [-90.5730855, 14.4785206], [-90.5731941, 14.4786024], [-90.5732424, 14.4786426], [-90.5732954, 14.478664], [-90.573341, 14.4786738], [-90.5733899, 14.478666], [-90.5734268, 14.4786465], [-90.573451, 14.4786218], [-90.5734724, 14.4785634], [-90.5734476, 14.4785004], [-90.5734322, 14.4784894], [-90.5734664, 14.478379], [-90.5734838, 14.4783076], [-90.5735589, 14.4782764], [-90.5737465, 14.4779569], [-90.5737227, 14.4776847], [-90.5741669, 14.4767406], [-90.57454, 14.4761771], [-90.5748318, 14.4759601], [-90.5749601, 14.4758567], [-90.5750912, 14.4758965], [-90.575177, 14.476007], [-90.5751816, 14.4762119], [-90.5752649, 14.4765436], [-90.5756481, 14.4765835], [-90.5760637, 14.4764501], [-90.5761308, 14.4765456], [-90.5761995, 14.476863], [-90.5762797, 14.4771369], [-90.5759452, 14.4776233], [-90.5758544, 14.4778376], [-90.5758094, 14.4783543], [-90.5758141, 14.4785388], [-90.5759043, 14.4788254], [-90.5759932, 14.4790156], [-90.5758403, 14.4791493], [-90.5757154, 14.4795188], [-90.5757147, 14.4795865], [-90.5757255, 14.4796657], [-90.5757201, 14.4796969], [-90.575653, 14.4797761], [-90.5755873, 14.4798215], [-90.5755229, 14.4798488], [-90.5754411, 14.4798748], [-90.5753513, 14.4799047], [-90.5752708, 14.4799189], [-90.5751877, 14.4799553], [-90.5750804, 14.4799917], [-90.5750093, 14.4800397], [-90.574963, 14.4800975], [-90.5749081, 14.4801546], [-90.5749387, 14.4802112], [-90.5749738, 14.4802273], [-90.5750529, 14.4802559], [-90.5750767, 14.4802429], [-90.5753868, 14.4802897], [-90.5754177, 14.4802254], [-90.5754458, 14.4801981], [-90.5755357, 14.4799598], [-90.5756007, 14.4799456], [-90.5756805, 14.4798696], [-90.575769, 14.4798053], [-90.575818, 14.479769], [-90.5758609, 14.4797891], [-90.5759019, 14.479841], [-90.5759199, 14.4799027], [-90.575936, 14.4799826], [-90.5759575, 14.4800527], [-90.5759722, 14.4800981], [-90.5759977, 14.4801345], [-90.576046, 14.4801416], [-90.5760997, 14.480136], [-90.5761775, 14.4800737], [-90.5762741, 14.4800633], [-90.5763343, 14.4800825], [-90.5763772, 14.4801155], [-90.5763819, 14.4801501], [-90.5764242, 14.4801955], [-90.5764966, 14.4802072], [-90.5765797, 14.4802267], [-90.5766978, 14.4803474], [-90.576722, 14.4804178], [-90.5767837, 14.4806762], [-90.5770037, 14.4810138], [-90.5770332, 14.481045], [-90.5769701, 14.4811541], [-90.5768682, 14.481206], [-90.5766952, 14.4812489], [-90.5765772, 14.4813138], [-90.5764766, 14.481393], [-90.5763894, 14.4815163], [-90.5763479, 14.4816397], [-90.5762982, 14.4816903], [-90.5762298, 14.4816955], [-90.5761185, 14.4816696], [-90.5758583, 14.4815813], [-90.5755998, 14.4816788], [-90.5751981, 14.4818361], [-90.5738049, 14.4824064], [-90.5732416, 14.4825878], [-90.5731615, 14.4825632], [-90.5730884, 14.482477], [-90.5729211, 14.4824141], [-90.5727918, 14.4823844], [-90.5726819, 14.4824313], [-90.5725482, 14.4825243], [-90.5723671, 14.4826258], [-90.5722105, 14.4827798], [-90.5721165, 14.4828571], [-90.5721013, 14.4829766], [-90.5720544, 14.4831064], [-90.5720453, 14.4833043], [-90.5721054, 14.4835242], [-90.5721818, 14.4836132], [-90.5722618, 14.483661], [-90.5724293, 14.483715], [-90.5725895, 14.4838079], [-90.5727841, 14.4840137], [-90.5729024, 14.4840446], [-90.5730554, 14.4842289], [-90.5730742, 14.4845291], [-90.5732204, 14.4848431], [-90.5731918, 14.4850705], [-90.5731681, 14.4851851], [-90.573198, 14.4853859], [-90.5731143, 14.4856644], [-90.5732363, 14.4860738], [-90.573399, 14.4864518], [-90.5737616, 14.4870186], [-90.5738206, 14.4872472], [-90.5738122, 14.487586], [-90.5738041, 14.4876542], [-90.5737744, 14.4876662], [-90.5737462, 14.4876745], [-90.5737108, 14.4876677], [-90.5736849, 14.4876263], [-90.573702, 14.4875973], [-90.5736687, 14.4875777], [-90.5737003, 14.4875297], [-90.5736985, 14.4874793], [-90.5736676, 14.4874274], [-90.5735993, 14.4873669], [-90.5735094, 14.4873222], [-90.5734008, 14.4872945], [-90.5733401, 14.4872781], [-90.5732321, 14.4872488], [-90.5731223, 14.4872058], [-90.5730406, 14.4871527], [-90.5729787, 14.4871188], [-90.5728853, 14.4871063], [-90.5727359, 14.4870882], [-90.5726005, 14.4870741], [-90.5725001, 14.4870509], [-90.5724166, 14.4870425], [-90.5723349, 14.4870442], [-90.5722514, 14.487034], [-90.5722304, 14.4870809], [-90.5720436, 14.4869566], [-90.5719951, 14.4868938], [-90.5718854, 14.4868339], [-90.5718083, 14.4868169], [-90.5716828, 14.4867471], [-90.5714427, 14.4866913], [-90.5713462, 14.4866251], [-90.5712979, 14.4865251], [-90.5713073, 14.4863835], [-90.5713113, 14.4862862], [-90.5712644, 14.4861875], [-90.5711678, 14.4860589], [-90.571031, 14.4858758], [-90.5710101, 14.485779], [-90.5708929, 14.4856265], [-90.5709023, 14.4855395], [-90.570799, 14.4853811], [-90.5705006, 14.485078], [-90.570573, 14.4849566], [-90.570462, 14.4848813], [-90.5703521, 14.4848579], [-90.5702032, 14.4848358], [-90.5699917, 14.4848369], [-90.5698657, 14.484831], [-90.5696827, 14.4847769], [-90.5696624, 14.4847169], [-90.5695303, 14.4846913], [-90.5691908, 14.4848133], [-90.5690983, 14.4848133], [-90.5687436, 14.4849294], [-90.5686511, 14.4849373], [-90.5684969, 14.4850509], [-90.5684316, 14.485016], [-90.5683371, 14.4849846], [-90.5683086, 14.4850249], [-90.5682964, 14.4850643], [-90.5682923, 14.4851538], [-90.5683096, 14.4852837], [-90.5683452, 14.4853309], [-90.5684011, 14.485449], [-90.568394, 14.4855514], [-90.5683269, 14.485946], [-90.568209, 14.4861684], [-90.568045, 14.4865042], [-90.5679582, 14.4866234], [-90.5678606, 14.4866845], [-90.567736, 14.4867787], [-90.5676727, 14.4867803], [-90.56762, 14.4867441], [-90.5676068, 14.4866854], [-90.5675785, 14.4866159], [-90.5675245, 14.4865586], [-90.5674423, 14.4865286], [-90.5673396, 14.486407], [-90.5672245, 14.4863453], [-90.5671149, 14.4863016], [-90.5670193, 14.4863059], [-90.5669609, 14.4862905], [-90.5669273, 14.4862476], [-90.5668972, 14.4861791], [-90.5669016, 14.4861199], [-90.5669176, 14.4860394], [-90.5669583, 14.4859692], [-90.5670219, 14.4858707], [-90.5669891, 14.4857658], [-90.5669865, 14.4856781], [-90.5669322, 14.4854614], [-90.5669073, 14.4853235], [-90.5668787, 14.4852681], [-90.5668358, 14.4852425], [-90.5668109, 14.4851849], [-90.5667792, 14.4851207], [-90.5667401, 14.4851061], [-90.5666978, 14.4851175], [-90.5666584, 14.4851928], [-90.5665872, 14.4851859], [-90.5665278, 14.485163], [-90.5664272, 14.4851561], [-90.5662695, 14.4851772], [-90.5661058, 14.4852642], [-90.5659985, 14.4853317], [-90.5659838, 14.4853875], [-90.5659342, 14.485411], [-90.5658377, 14.4853961], [-90.5657518, 14.4854258], [-90.5657817, 14.4855166], [-90.5657759, 14.485577], [-90.5658049, 14.4856608], [-90.5658304, 14.4857626], [-90.5658882, 14.4858457], [-90.5659882, 14.4859858], [-90.5661146, 14.4861096], [-90.5662355, 14.4862546], [-90.5663846, 14.4863995], [-90.5664606, 14.4864908], [-90.5665659, 14.4865332], [-90.5666117, 14.4866112], [-90.5667017, 14.4866567], [-90.5668397, 14.4867531], [-90.5669217, 14.4867544], [-90.5669857, 14.4867821], [-90.5670018, 14.4868433], [-90.5672143, 14.486893], [-90.5674005, 14.4869763], [-90.5675686, 14.4870409], [-90.5677238, 14.4870552], [-90.5679454, 14.487076], [-90.5680362, 14.4870968], [-90.5682131, 14.4871792], [-90.5683521, 14.4872127], [-90.5685722, 14.4872711], [-90.5687621, 14.4873001], [-90.5689059, 14.4872968], [-90.5690054, 14.487296], [-90.5690881, 14.4872625], [-90.5691416, 14.4872748], [-90.5691829, 14.4873169], [-90.5692133, 14.4874333], [-90.5692708, 14.4875029], [-90.5693252, 14.4875365], [-90.5693773, 14.4875677], [-90.5695297, 14.4876119], [-90.5696555, 14.4876483], [-90.5697626, 14.4877265], [-90.5698312, 14.4877446], [-90.5699243, 14.4878127], [-90.5700235, 14.4878689], [-90.5701187, 14.4879472], [-90.5702323, 14.4880701], [-90.5703805, 14.4881494], [-90.5705363, 14.4882078], [-90.570857, 14.4883527], [-90.5710464, 14.4884302], [-90.5712313, 14.4884453], [-90.5714128, 14.48846], [-90.5715458, 14.488475], [-90.5717034, 14.4884812], [-90.5718523, 14.4884404], [-90.572091, 14.4884193], [-90.5722414, 14.4883756], [-90.5723856, 14.4883062], [-90.5725227, 14.4882308], [-90.5725926, 14.4881837], [-90.5725891, 14.4881229], [-90.5725731, 14.4880975], [-90.5725852, 14.4880836], [-90.5725961, 14.4880809], [-90.572641, 14.4880785], [-90.5726634, 14.4880766], [-90.5727201, 14.4880809], [-90.5727997, 14.4881083], [-90.5728692, 14.48808], [-90.5730797, 14.4880227], [-90.5732495, 14.4880093], [-90.5732383, 14.4880929], [-90.5732905, 14.4881577], [-90.5733387, 14.4882028], [-90.5734217, 14.4882102], [-90.5734998, 14.4882164], [-90.5735723, 14.4882158], [-90.5736233, 14.4881944], [-90.573823, 14.4882046], [-90.5739501, 14.4881655], [-90.5740201, 14.4881621], [-90.5740598, 14.4881395], [-90.5741787, 14.488161], [-90.5742839, 14.4881453], [-90.5745824, 14.4881685], [-90.5747182, 14.4882325], [-90.574816, 14.4883543], [-90.5749578, 14.4884443], [-90.5751489, 14.4884746], [-90.5753461, 14.4883843], [-90.5755359, 14.4883657], [-90.5757257, 14.4882875], [-90.5760828, 14.4883171], [-90.5763459, 14.4882674], [-90.5764224, 14.4882512], [-90.5765062, 14.488234], [-90.5766517, 14.4882197], [-90.5768059, 14.4882009], [-90.5769427, 14.4881613], [-90.5770929, 14.4880989], [-90.5772181, 14.4876685], [-90.5775013, 14.4869788], [-90.5776472, 14.486879], [-90.5779648, 14.4868624], [-90.5782738, 14.4865466], [-90.5785914, 14.4864802], [-90.5788746, 14.4862558], [-90.5791664, 14.4858652], [-90.5794239, 14.4852585], [-90.5798531, 14.484735], [-90.5801792, 14.4844275], [-90.5803337, 14.4840536], [-90.5805225, 14.4837212], [-90.5805397, 14.4831394], [-90.5806255, 14.4827405], [-90.5808487, 14.4827239], [-90.5809689, 14.4823915], [-90.5812092, 14.4819926], [-90.5814423, 14.4814555], [-90.5814816, 14.4812805], [-90.581586, 14.4811843], [-90.5816991, 14.4811904], [-90.5818529, 14.4812281], [-90.5820847, 14.481494], [-90.5824576, 14.481496], [-90.5826597, 14.4814192], [-90.5827984, 14.4813326], [-90.5829945, 14.4812696], [-90.5832691, 14.4814607], [-90.5837412, 14.4813943], [-90.5841103, 14.4813943], [-90.5844646, 14.4815144], [-90.5846059, 14.4816227], [-90.584741, 14.4816773], [-90.5848141, 14.4818462], [-90.5849171, 14.4819344], [-90.5849171, 14.4822668], [-90.5850544, 14.482458], [-90.5853291, 14.482458], [-90.5856359, 14.4826332], [-90.5859299, 14.4827405], [-90.5862496, 14.482757], [-90.586359, 14.4827405], [-90.5867195, 14.4825993], [-90.5870285, 14.4823749], [-90.5872687, 14.4820311], [-90.5874092, 14.4819644], [-90.587489, 14.4818978], [-90.5875506, 14.481882], [-90.5875989, 14.4818912], [-90.5877195, 14.481904], [-90.5877933, 14.4818896], [-90.5878218, 14.4819152], [-90.5878976, 14.4819075], [-90.5879931, 14.4818966], [-90.5880931, 14.4819849], [-90.5881557, 14.4820234], [-90.5881829, 14.4820506], [-90.5882644, 14.4821308], [-90.5883599, 14.4822109], [-90.5885509, 14.482335], [-90.588679, 14.4824093], [-90.5887754, 14.4824614], [-90.5888595, 14.4825764], [-90.5889114, 14.4826476], [-90.5889332, 14.4827501], [-90.5890039, 14.4828448], [-90.5890762, 14.4829132], [-90.5891125, 14.4829825], [-90.589165, 14.4830203], [-90.5892212, 14.483025], [-90.5893092, 14.4830817], [-90.5893957, 14.4830926], [-90.5894551, 14.483091], [-90.5895294, 14.4830693], [-90.5897211, 14.4832911], [-90.589795, 14.4833555], [-90.5898619, 14.4834628], [-90.5899948, 14.4836338], [-90.5900771, 14.4838324], [-90.5901475, 14.4839758], [-90.5902888, 14.4840917], [-90.5904535, 14.4842166], [-90.5905829, 14.4843141], [-90.5906577, 14.4843858], [-90.5907767, 14.4843935], [-90.5909368, 14.4844408], [-90.5913544, 14.4844275], [-90.5916634, 14.4845688], [-90.5920668, 14.4849511], [-90.5924101, 14.4850674], [-90.5927277, 14.4852336], [-90.5930967, 14.4852835], [-90.59338, 14.4853998], [-90.5937233, 14.4853417], [-90.593998, 14.4853417], [-90.59441, 14.4854497], [-90.5947876, 14.4853666], [-90.5951309, 14.4851754], [-90.5956116, 14.4850923], [-90.596015, 14.4850092], [-90.5963841, 14.4850674], [-90.5967617, 14.4849677], [-90.5974484, 14.4850342], [-90.597929, 14.4851505], [-90.598201, 14.4854133], [-90.5983753, 14.4856159], [-90.5988903, 14.4858818], [-90.5995083, 14.4861311], [-90.6000748, 14.4863139], [-90.6005898, 14.4863638], [-90.6009503, 14.4864635], [-90.6013794, 14.4866297], [-90.6019974, 14.4868624], [-90.6027355, 14.4870619], [-90.6033363, 14.4872945], [-90.6036797, 14.4876685], [-90.6038513, 14.4881671], [-90.6042118, 14.488915], [-90.6044865, 14.4891228], [-90.6048985, 14.4894136], [-90.6052847, 14.4897211], [-90.606143, 14.4899704], [-90.6065121, 14.4901034], [-90.6070013, 14.4902446], [-90.6072974, 14.4904109], [-90.6075764, 14.490577], [-90.6077738, 14.4907432], [-90.6080313, 14.4910507], [-90.6083317, 14.4913665], [-90.608675, 14.4913561], [-90.6089497, 14.4913499], [-90.6093788, 14.4913499], [-90.6098233, 14.4912494], [-90.6100912, 14.4911587], [-90.6105461, 14.4908263], [-90.6107779, 14.4904939], [-90.6109753, 14.49012], [-90.6111469, 14.4895549], [-90.6112929, 14.4891394], [-90.6113186, 14.4887239], [-90.6112671, 14.488192], [-90.6114044, 14.4874774]], [[-90.5735952, 14.4876387], [-90.5735888, 14.4876579], [-90.5735818, 14.4876806], [-90.5735555, 14.4876998], [-90.5735234, 14.4877128], [-90.5734884, 14.487715], [-90.573458, 14.4877043], [-90.5734457, 14.4876806], [-90.5734271, 14.4876512], [-90.5733926, 14.4876184], [-90.5733611, 14.4875924], [-90.5733237, 14.48758], [-90.5732788, 14.4875884], [-90.5732414, 14.4875986], [-90.5732064, 14.4876031], [-90.5731428, 14.4875862], [-90.5730897, 14.4875489], [-90.5730389, 14.4875087], [-90.5730085, 14.4874748], [-90.572956, 14.4874279], [-90.5729151, 14.4874002], [-90.5728562, 14.4873714], [-90.5728048, 14.4873544], [-90.5727534, 14.4873488], [-90.572705, 14.4873556], [-90.5726647, 14.4873737], [-90.5726407, 14.4873906], [-90.5726116, 14.4874211], [-90.5725736, 14.487455], [-90.5725415, 14.4874686], [-90.5725176, 14.4874822], [-90.5724954, 14.4874923], [-90.5724814, 14.4874799], [-90.5724615, 14.4874844], [-90.5724429, 14.4875025], [-90.5724312, 14.4875619], [-90.5724318, 14.4876037], [-90.5724359, 14.4876325], [-90.5724545, 14.48768], [-90.5724709, 14.4877139], [-90.5724779, 14.4877501], [-90.5724726, 14.4877744], [-90.5724563, 14.4877964], [-90.5724341, 14.4878083], [-90.5724143, 14.4878134], [-90.5723944, 14.4878111], [-90.5723868, 14.4878055], [-90.5723664, 14.4877992], [-90.5723495, 14.4877885], [-90.5723238, 14.4877614], [-90.5722922, 14.4877359], [-90.5722607, 14.4877037], [-90.5722491, 14.4876766], [-90.5722636, 14.4876653], [-90.5722777, 14.4876619], [-90.5722718, 14.4876461], [-90.5722759, 14.4876269], [-90.5722829, 14.4876048], [-90.5722782, 14.4875749], [-90.5722823, 14.4875347], [-90.5722946, 14.4874697], [-90.5723144, 14.4874409], [-90.572346, 14.4874093], [-90.5723576, 14.4873906], [-90.572343, 14.4873731], [-90.572329, 14.4873533], [-90.5723337, 14.487342], [-90.572353, 14.4873375], [-90.5723781, 14.4873364], [-90.5723979, 14.4873364], [-90.5724166, 14.4873307], [-90.5724394, 14.4873143], [-90.572468, 14.4872979], [-90.57251, 14.4872855], [-90.57258, 14.4872855], [-90.5726314, 14.4872776], [-90.5727067, 14.4872685], [-90.5727826, 14.4872736], [-90.5728877, 14.4872844], [-90.5729694, 14.487307], [-90.5730955, 14.4873595], [-90.5732333, 14.4874093], [-90.5734306, 14.4874624], [-90.5734796, 14.4874918], [-90.5735461, 14.4875511], [-90.5735841, 14.4876105], [-90.5735952, 14.4876387]]]}}]}